start=new Date('2022-10-20T00:00:00.000Z').valueOf();
sats=[{"ELEMENT_SET_NO":"999","LAUNCH_DATE":"2020-01-07","FILE":"3623738","REF_FRAME":"TEME","OBJECT_TYPE":"PAYLOAD","CENTER_NAME":"EARTH","MEAN_MOTION":"15.06401861","TIME_SYSTEM":"UTC","APOAPSIS":"548.130","OBJECT_ID":"2020-001AT","MEAN_ANOMALY":"271.4440","OBJECT_NAME":"STARLINK-1069","MEAN_MOTION_DOT":"0.00000666","MEAN_MOTION_DDOT":"0.0000000000000","PERIAPSIS":"546.286","PERIOD":"95.592","TLE_LINE2":"2 44955  53.0537  99.4935 0001331  88.6702 271.4440 15.06401861153913","SEMIMAJOR_AXIS":"6925.343","DECAY_DATE":null,"REV_AT_EPOCH":"15391","INCLINATION":"53.0537","ECCENTRICITY":"0.00013310","EPHEMERIS_TYPE":"0","EPOCH":"2022-10-19T17:46:25.837248","RCS_SIZE":"LARGE","SITE":"AFETR","TLE_LINE1":"1 44955U 20001AT  22292.74057682  .00000666  00000-0  63612-4 0  9996","MEAN_ELEMENT_THEORY":"SGP4","RA_OF_ASC_NODE":"99.4935","ARG_OF_PERICENTER":"88.6702","COUNTRY_CODE":"US","NORAD_CAT_ID":"44955","CLASSIFICATION_TYPE":"U","GP_ID":"215619564","BSTAR":"0.00006361200000"},{"ECCENTRICITY":"0.00014090","EPHEMERIS_TYPE":"0","EPOCH":"2022-10-19T20:50:50.515872","INCLINATION":"53.0542","SEMIMAJOR_AXIS":"6925.344","DECAY_DATE":null,"REV_AT_EPOCH":"15399","BSTAR":"0.00005497000000","GP_ID":"215590864","COUNTRY_CODE":"US","ARG_OF_PERICENTER":"114.4527","NORAD_CAT_ID":"44956","CLASSIFICATION_TYPE":"U","MEAN_ELEMENT_THEORY":"SGP4","RA_OF_ASC_NODE":"98.9038","TLE_LINE1":"1 44956U 20001AU  22292.86864023  .00000537  00000-0  54970-4 0  9999","RCS_SIZE":"LARGE","SITE":"AFETR","TIME_SYSTEM":"UTC","MEAN_MOTION":"15.06401478","CENTER_NAME":"EARTH","FILE":"3623367","REF_FRAME":"TEME","OBJECT_TYPE":"PAYLOAD","LAUNCH_DATE":"2020-01-07","ELEMENT_SET_NO":"999","TLE_LINE2":"2 44956  53.0542  98.9038 0001409 114.4527 245.6609 15.06401478153999","PERIAPSIS":"546.233","PERIOD":"95.592","MEAN_MOTION_DDOT":"0.0000000000000","MEAN_MOTION_DOT":"0.00000537","MEAN_ANOMALY":"245.6609","OBJECT_NAME":"STARLINK-1070","APOAPSIS":"548.185","OBJECT_ID":"2020-001AU"},{"EPOCH":"2022-10-19T13:30:17.916768","ECCENTRICITY":"0.00012450","EPHEMERIS_TYPE":"0","REV_AT_EPOCH":"15394","DECAY_DATE":null,"SEMIMAJOR_AXIS":"6925.347","INCLINATION":"53.0544","NORAD_CAT_ID":"44957","CLASSIFICATION_TYPE":"U","COUNTRY_CODE":"US","ARG_OF_PERICENTER":"105.5593","BSTAR":"0.00001417200000","GP_ID":"215618068","SITE":"AFETR","RCS_SIZE":"LARGE","TLE_LINE1":"1 44957U 20001AV  22292.56270737 -.00000070  00000-0  14172-4 0  9993","MEAN_ELEMENT_THEORY":"SGP4","RA_OF_ASC_NODE":"100.2774","MEAN_MOTION":"15.06400444","TIME_SYSTEM":"UTC","ELEMENT_SET_NO":"999","LAUNCH_DATE":"2020-01-07","REF_FRAME":"TEME","OBJECT_TYPE":"PAYLOAD","FILE":"3623738","CENTER_NAME":"EARTH","MEAN_MOTION_DDOT":"0.0000000000000","PERIAPSIS":"546.350","PERIOD":"95.592","TLE_LINE2":"2 44957  53.0544 100.2774 0001245 105.5593 254.5534 15.06400444153941","APOAPSIS":"548.074","OBJECT_ID":"2020-001AV","OBJECT_NAME":"STARLINK-1074","MEAN_ANOMALY":"254.5534","MEAN_MOTION_DOT":"-0.00000070"},{"EPHEMERIS_TYPE":"0","ECCENTRICITY":"0.00013970","EPOCH":"2022-10-19T15:28:26.373216","DECAY_DATE":null,"SEMIMAJOR_AXIS":"6925.365","REV_AT_EPOCH":"15395","INCLINATION":"53.0540","COUNTRY_CODE":"US","ARG_OF_PERICENTER":"87.8872","NORAD_CAT_ID":"44959","CLASSIFICATION_TYPE":"U","BSTAR":"0.00005839900000","GP_ID":"215619318","RCS_SIZE":"LARGE","SITE":"AFETR","TLE_LINE1":"1 44959U 20001AX  22292.64474969  .00000588  00000-0  58399-4 0  9999","RA_OF_ASC_NODE":"99.9220","MEAN_ELEMENT_THEORY":"SGP4","MEAN_MOTION":"15.06394793","TIME_SYSTEM":"UTC","ELEMENT_SET_NO":"999","LAUNCH_DATE":"2020-01-07","FILE":"3623738","OBJECT_TYPE":"PAYLOAD","REF_FRAME":"TEME","CENTER_NAME":"EARTH","MEAN_MOTION_DDOT":"0.0000000000000","PERIOD":"95.592","PERIAPSIS":"546.262","TLE_LINE2":"2 44959  53.0540  99.9220 0001397  87.8872 272.2277 15.06394793153950","OBJECT_ID":"2020-001AX","APOAPSIS":"548.197","MEAN_ANOMALY":"272.2277","OBJECT_NAME":"STARLINK-1076","MEAN_MOTION_DOT":"0.00000588"},{"ARG_OF_PERICENTER":"114.2996","COUNTRY_CODE":"US","CLASSIFICATION_TYPE":"U","NORAD_CAT_ID":"44961","BSTAR":"0.00039449000000","GP_ID":"215619066","RCS_SIZE":"LARGE","SITE":"AFETR","MEAN_ELEMENT_THEORY":"SGP4","RA_OF_ASC_NODE":"100.2007","TLE_LINE1":"1 44961U 20001AZ  22292.58579295  .00005600  00000-0  39449-3 0  9997","ECCENTRICITY":"0.00014240","EPHEMERIS_TYPE":"0","EPOCH":"2022-10-19T14:03:32.510880","INCLINATION":"53.0530","SEMIMAJOR_AXIS":"6925.336","DECAY_DATE":null,"REV_AT_EPOCH":"15395","MEAN_MOTION_DDOT":"0.0000000000000","TLE_LINE2":"2 44961  53.0530 100.2007 0001424 114.2996 245.8142 15.06404011153956","PERIAPSIS":"546.215","PERIOD":"95.592","MEAN_ANOMALY":"245.8142","OBJECT_NAME":"STARLINK-1080","OBJECT_ID":"2020-001AZ","APOAPSIS":"548.187","MEAN_MOTION_DOT":"0.00005600","TIME_SYSTEM":"UTC","MEAN_MOTION":"15.06404011","LAUNCH_DATE":"2020-01-07","ELEMENT_SET_NO":"999","CENTER_NAME":"EARTH","FILE":"3623738","OBJECT_TYPE":"PAYLOAD","REF_FRAME":"TEME"},{"MEAN_MOTION_DOT":"0.00037588","MEAN_ANOMALY":"62.9460","OBJECT_NAME":"STARLINK-1085","APOAPSIS":"502.592","OBJECT_ID":"2020-001BB","TLE_LINE2":"2 44963  52.9937  77.8977 0000887 297.1444  62.9460 15.21279524154940","PERIAPSIS":"501.372","PERIOD":"94.657","MEAN_MOTION_DDOT":"0.0000000000000","CENTER_NAME":"EARTH","FILE":"3623062","OBJECT_TYPE":"PAYLOAD","REF_FRAME":"TEME","LAUNCH_DATE":"2020-01-07","ELEMENT_SET_NO":"999","TIME_SYSTEM":"UTC","MEAN_MOTION":"15.21279524","MEAN_ELEMENT_THEORY":"SGP4","RA_OF_ASC_NODE":"77.8977","TLE_LINE1":"1 44963U 20001BB  22292.44950696  .00037588  00000-0  16660-2 0  9991","RCS_SIZE":"LARGE","SITE":"AFETR","GP_ID":"215577781","BSTAR":"0.00166600000000","ARG_OF_PERICENTER":"297.1444","COUNTRY_CODE":"US","CLASSIFICATION_TYPE":"U","NORAD_CAT_ID":"44963","INCLINATION":"52.9937","DECAY_DATE":null,"SEMIMAJOR_AXIS":"6880.117","REV_AT_EPOCH":"15494","EPHEMERIS_TYPE":"0","ECCENTRICITY":"0.00008870","EPOCH":"2022-10-19T10:47:17.401344"},{"EPHEMERIS_TYPE":"0","ECCENTRICITY":"0.00012900","EPOCH":"2022-10-19T17:57:02.560320","INCLINATION":"53.0545","SEMIMAJOR_AXIS":"6925.346","DECAY_DATE":null,"REV_AT_EPOCH":"15397","BSTAR":"0.00003640200000","GP_ID":"215618568","COUNTRY_CODE":"US","ARG_OF_PERICENTER":"106.0136","NORAD_CAT_ID":"44964","CLASSIFICATION_TYPE":"U","RA_OF_ASC_NODE":"99.4572","MEAN_ELEMENT_THEORY":"SGP4","TLE_LINE1":"1 44964U 20001BC  22292.74794630  .00000261  00000-0  36402-4 0  9995","RCS_SIZE":"LARGE","SITE":"AFETR","TIME_SYSTEM":"UTC","MEAN_MOTION":"15.06400762","CENTER_NAME":"EARTH","FILE":"3623738","REF_FRAME":"TEME","OBJECT_TYPE":"PAYLOAD","LAUNCH_DATE":"2020-01-07","ELEMENT_SET_NO":"999","TLE_LINE2":"2 44964  53.0545  99.4572 0001290 106.0136 254.0995 15.06400762153976","PERIOD":"95.592","PERIAPSIS":"546.318","MEAN_MOTION_DDOT":"0.0000000000000","MEAN_MOTION_DOT":"0.00000261","MEAN_ANOMALY":"254.0995","OBJECT_NAME":"STARLINK-1086","OBJECT_ID":"2020-001BC","APOAPSIS":"548.105"},{"SITE":"AFETR","RCS_SIZE":"LARGE","MEAN_ELEMENT_THEORY":"SGP4","RA_OF_ASC_NODE":"99.0795","TLE_LINE1":"1 44966U 20001BE  22292.83641942  .00001234  00000-0  10176-3 0  9994","CLASSIFICATION_TYPE":"U","NORAD_CAT_ID":"44966","COUNTRY_CODE":"US","ARG_OF_PERICENTER":"104.6067","GP_ID":"215590915","BSTAR":"0.00010176000000","INCLINATION":"53.0544","REV_AT_EPOCH":"15398","SEMIMAJOR_AXIS":"6925.366","DECAY_DATE":null,"EPOCH":"2022-10-19T20:04:26.637888","ECCENTRICITY":"0.00011320","EPHEMERIS_TYPE":"0","OBJECT_NAME":"STARLINK-1088","MEAN_ANOMALY":"255.5047","OBJECT_ID":"2020-001BE","APOAPSIS":"548.015","MEAN_MOTION_DOT":"0.00001234","MEAN_MOTION_DDOT":"0.0000000000000","TLE_LINE2":"2 44966  53.0544  99.0795 0001132 104.6067 255.5047 15.06394322153981","PERIAPSIS":"546.447","PERIOD":"95.593","LAUNCH_DATE":"2020-01-07","ELEMENT_SET_NO":"999","CENTER_NAME":"EARTH","REF_FRAME":"TEME","OBJECT_TYPE":"PAYLOAD","FILE":"3623370","TIME_SYSTEM":"UTC","MEAN_MOTION":"15.06394322"},{"SITE":"AFETR","RCS_SIZE":"LARGE","MEAN_ELEMENT_THEORY":"SGP4","RA_OF_ASC_NODE":"100.1538","TLE_LINE1":"1 44967U 20001BF  22292.59315543 -.00000648  00000-0 -24640-4 0  9995","NORAD_CAT_ID":"44967","CLASSIFICATION_TYPE":"U","ARG_OF_PERICENTER":"89.5892","COUNTRY_CODE":"US","GP_ID":"215619565","BSTAR":"-0.00002464000000","INCLINATION":"53.0538","REV_AT_EPOCH":"15395","SEMIMAJOR_AXIS":"6925.417","DECAY_DATE":null,"EPOCH":"2022-10-19T14:14:08.629152","EPHEMERIS_TYPE":"0","ECCENTRICITY":"0.00012970","OBJECT_NAME":"STARLINK-1089","MEAN_ANOMALY":"270.5245","OBJECT_ID":"2020-001BF","APOAPSIS":"548.180","MEAN_MOTION_DOT":"-0.00000648","MEAN_MOTION_DDOT":"0.0000000000000","TLE_LINE2":"2 44967  53.0538 100.1538 0001297  89.5892 270.5245 15.06377789153955","PERIAPSIS":"546.383","PERIOD":"95.594","LAUNCH_DATE":"2020-01-07","ELEMENT_SET_NO":"999","CENTER_NAME":"EARTH","OBJECT_TYPE":"PAYLOAD","REF_FRAME":"TEME","FILE":"3623738","TIME_SYSTEM":"UTC","MEAN_MOTION":"15.06377789"},{"EPHEMERIS_TYPE":"0","ECCENTRICITY":"0.00012110","EPOCH":"2022-10-19T14:08:49.888320","SEMIMAJOR_AXIS":"6925.358","DECAY_DATE":null,"REV_AT_EPOCH":"15395","INCLINATION":"53.0543","GP_ID":"215617820","BSTAR":"0.00004415300000","COUNTRY_CODE":"US","ARG_OF_PERICENTER":"105.1308","NORAD_CAT_ID":"44968","CLASSIFICATION_TYPE":"U","TLE_LINE1":"1 44968U 20001BG  22292.58946630  .00000376  00000-0  44153-4 0  9999","RA_OF_ASC_NODE":"100.1775","MEAN_ELEMENT_THEORY":"SGP4","RCS_SIZE":"LARGE","SITE":"AFETR","MEAN_MOTION":"15.06396996","TIME_SYSTEM":"UTC","FILE":"3623738","REF_FRAME":"TEME","OBJECT_TYPE":"PAYLOAD","CENTER_NAME":"EARTH","ELEMENT_SET_NO":"999","LAUNCH_DATE":"2020-01-07","PERIAPSIS":"546.384","PERIOD":"95.592","TLE_LINE2":"2 44968  53.0543 100.1775 0001211 105.1308 254.9815 15.06396996153958","MEAN_MOTION_DDOT":"0.0000000000000","MEAN_MOTION_DOT":"0.00000376","OBJECT_ID":"2020-001BG","APOAPSIS":"548.061","MEAN_ANOMALY":"254.9815","OBJECT_NAME":"STARLINK-1090"}];
